NORAD_CAT_ID,OBJECT_NAME,OBJECT_TYPE,EPOCH,MEAN_MOTION,ECCENTRICITY,INCLINATION,RA_OF_ASC_NODE,ARG_OF_PERICENTER,MEAN_ANOMALY,BSTAR,MEAN_MOTION_DOT,MEAN_MOTION_DDOT,TLE_LINE0,TLE_LINE1,TLE_LINE2,SEMIMAJOR_AXIS,PERIOD,APOGEE,PERIGEE,DECAYED
52838.0,STARLINK-4092,PAYLOAD,2023-12-10 15:09:45,15.08838771,0.0001439,53.2174,115.4937,86.8018,273.3139,5.3438e-05,5.63e-06,0.0,0 STARLINK-4092,1 52838U 22062J   23344.63177745  .00000563  00000-0  53438-4 0  9995,2 52838  53.2174 115.4937 0001439  86.8018 273.3139 15.08838771 82475,6917.884,95.438,540.745,538.754,0.0
52838.0,STARLINK-4092,PAYLOAD,2023-12-11 13:25:09,15.08839499,0.0001436,53.2175,111.3307,87.8895,272.2262,3.7572e-05,3.1e-06,0.0,0 STARLINK-4092,1 52838U 22062J   23345.55913794  .00000310  00000-0  37572-4 0  9990,2 52838  53.2175 111.3307 0001436  87.8895 272.2262 15.08839499 82128,6917.882,95.438,540.74,538.754,0.0
52838.0,STARLINK-4092,PAYLOAD,2023-12-11 15:00:32,15.08840248,0.0001462,53.2174,111.0337,82.1761,277.9397,4.3323e-05,4.02e-06,0.0,0 STARLINK-4092,1 52838U 22062J   23345.62537760  .00000402  00000-0  43323-4 0  9996,2 52838  53.2174 111.0337 0001462  82.1761 277.9397 15.08840248 82132,6917.88,95.438,540.756,538.733,0.0
52838.0,STARLINK-4092,PAYLOAD,2023-12-12 11:40:33,15.08838907,0.0001391,53.2172,107.1667,99.2227,260.8922,1.4044e-05,-6.4e-07,0.0,0 STARLINK-4092,1 52838U 22062J   23346.48649847 -.00000064  00000-0  14044-4 0  9994,2 52838  53.2172 107.1667 0001391  99.2227 260.8922 15.08838907 82751,6917.884,95.438,540.711,538.786,0.0
52838.0,STARLINK-4092,PAYLOAD,2023-12-12 13:15:56,15.08839476,0.000142,53.2175,106.8695,100.5153,259.6,1.7297e-05,-1.3e-07,0.0,0 STARLINK-4092,1 52838U 22062J   23346.55273794 -.00000013  00000-0  17297-4 0  9993,2 52838  53.2175 106.8695 0001420 100.5153 259.6000 15.08839476 82270,6917.882,95.438,540.729,538.765,0.0
52838.0,STARLINK-4092,PAYLOAD,2023-12-12 14:51:19,15.08839667,0.0001406,53.2175,106.5722,98.4921,261.6231,1.8344e-05,4e-08,0.0,0 STARLINK-4092,1 52838U 22062J   23346.61897787  .00000004  00000-0  18344-4 0  9997,2 52838  53.2175 106.5722 0001406  98.4921 261.6231 15.08839667 82282,6917.881,95.438,540.719,538.774,0.0
52838.0,STARLINK-4092,PAYLOAD,2023-12-13 14:42:06,15.08840797,0.0001453,53.2179,102.113,104.6361,255.4792,3.5312e-05,2.74e-06,0.0,0 STARLINK-4092,1 52838U 22062J   23347.61257628  .00000274  00000-0  35312-4 0  9995,2 52838  53.2179 102.1130 0001453 104.6361 255.4792 15.08840797 82437,6917.878,95.438,540.748,538.738,0.0
52838.0,STARLINK-4092,PAYLOAD,2023-12-14 11:22:07,15.08834156,0.0001445,53.2179,98.2451,100.2927,259.8229,-7.1326e-06,-4.01e-06,0.0,0 STARLINK-4092,1 52838U 22062J   23348.47370353 -.00000401  00000-0 -71326-5 0  9991,2 52838  53.2179  98.2451 0001445 100.2927 259.8229 15.08834156 83053,6917.898,95.438,540.763,538.764,0.0
52838.0,STARLINK-4092,PAYLOAD,2023-12-14 14:32:54,15.08835258,0.0001422,53.218,97.6511,96.2474,263.868,3.8182e-06,-2.27e-06,0.0,0 STARLINK-4092,1 52838U 22062J   23348.60618312 -.00000227  00000-0  38182-5 0  9994,2 52838  53.2180  97.6511 0001422  96.2474 263.8680 15.08835258 82588,6917.895,95.438,540.744,538.776,0.0
52838.0,STARLINK-4092,PAYLOAD,2023-12-15 12:48:18,15.08833034,0.0001498,53.2185,93.49,101.1922,258.9239,-3.9502e-06,-3.51e-06,0.0,0 STARLINK-4092,1 52838U 22062J   23349.53354818 -.00000351  00000-0 -39502-5 0  9991,2 52838  53.2185  93.4900 0001498 101.1922 258.9239 15.08833034 82727,6917.902,95.438,540.803,538.73,0.0
52838.0,STARLINK-4092,PAYLOAD,2023-12-16 11:03:42,15.08838981,0.0001465,53.2188,89.3278,99.9817,260.1341,7.9361e-05,9.75e-06,0.0,0 STARLINK-4092,1 52838U 22062J   23350.46090420  .00000975  00000-0  79361-4 0  9997,2 52838  53.2188  89.3278 0001465  99.9817 260.1341 15.08838981 83358,6917.884,95.438,540.762,538.735,0.0
52838.0,STARLINK-4092,PAYLOAD,2023-12-16 14:14:28,15.0884365,0.0001431,53.218,88.7267,74.8326,285.2824,0.00011023,1.467e-05,0.0,0 STARLINK-4092,1 52838U 22062J   23350.59338109  .00001467  00000-0  11023-3 0  9997,2 52838  53.2180  88.7267 0001431  74.8326 285.2824 15.08843650 82881,6917.869,95.437,540.724,538.744,0.0
52838.0,STARLINK-4092,PAYLOAD,2023-12-17 12:29:52,15.08837348,0.0001587,53.218,84.5659,65.1866,294.9291,2.2119e-05,6.4e-07,0.0,0 STARLINK-4092,1 52838U 22062J   23351.52075045  .00000064  00000-0  22119-4 0  9999,2 52838  53.2180  84.5659 0001587  65.1866 294.9291 15.08837348 83517,6917.888,95.438,540.851,538.656,0.0
52838.0,STARLINK-4092,PAYLOAD,2023-12-17 14:05:15,15.0884095,0.000144,53.218,84.269,71.4818,288.6331,5.9187e-05,6.54e-06,0.0,0 STARLINK-4092,1 52838U 22062J   23351.58698656  .00000654  00000-0  59187-4 0  9994,2 52838  53.2180  84.2690 0001440  71.4818 288.6331 15.08840950 83039,6917.877,95.437,540.739,538.746,0.0
52838.0,STARLINK-4092,PAYLOAD,2023-12-18 12:20:38,15.08856373,0.0001505,53.2183,80.1087,69.3935,290.7219,8.4973e-05,1.065e-05,0.0,0 STARLINK-4092,1 52838U 22062J   23352.51433334  .00001065  00000-0  84973-4 0  9996,2 52838  53.2183  80.1087 0001505  69.3935 290.7219 15.08856373 83669,6917.83,95.437,540.736,538.654,0.0
52838.0,STARLINK-4092,PAYLOAD,2023-12-19 12:11:26,15.08844017,0.0001286,53.2173,75.6558,82.5411,277.5727,1.4311e-05,-6e-07,0.0,0 STARLINK-4092,1 52838U 22062J   23353.50794104 -.00000060  00000-0  14311-4 0  9995,2 52838  53.2173  75.6558 0001286  82.5411 277.5727 15.08844017 83818,6917.868,95.437,540.623,538.843,0.0
52838.0,STARLINK-4092,PAYLOAD,2023-12-20 12:02:14,15.08837829,0.0001494,53.218,71.1875,84.6434,275.4729,-0.00014807,-2.644e-05,0.0,0 STARLINK-4092,1 52838U 22062J   23354.50155115 -.00002644  00000-0 -14807-3 0  9999,2 52838  53.2180  71.1875 0001494  84.6434 275.4729 15.08837829 83966,6917.887,95.438,540.786,538.718,0.0
52838.0,STARLINK-4092,PAYLOAD,2023-12-21 10:17:37,15.08842685,0.0001409,53.2181,67.0263,76.3783,283.7366,8.5122e-05,1.067e-05,0.0,0 STARLINK-4092,1 52838U 22062J   23355.42890273  .00001067  00000-0  85122-4 0  9997,2 52838  53.2181  67.0263 0001409  76.3783 283.7366 15.08842685 84105,6917.872,95.437,540.712,538.762,0.0
52838.0,STARLINK-4092,PAYLOAD,2023-12-22 10:08:24,15.08838547,0.000142,53.2182,62.56,101.0133,259.1019,4.5257e-05,4.32e-06,0.0,0 STARLINK-4092,1 52838U 22062J   23356.42251024  .00000432  00000-0  45257-4 0  9993,2 52838  53.2182  62.5600 0001420 101.0133 259.1019 15.08838547 84259,6917.885,95.438,540.732,538.767,0.0
52838.0,STARLINK-4092,PAYLOAD,2023-12-23 03:37:39,15.0876673,0.0002293,53.2187,59.2944,113.0342,247.0892,0.00090972,0.00014191,0.0,0 STARLINK-4092,1 52838U 22062J   23357.15115520  .00014191  00000-0  90972-3 0  9994,2 52838  53.2187  59.2944 0002293 113.0342 247.0892 15.08766730 84363,6918.104,95.442,541.556,538.383,0.0
52838.0,STARLINK-4092,PAYLOAD,2023-12-23 11:34:35,15.08817684,0.000174,53.2181,57.8056,94.6116,265.5075,0.00040734,6.197e-05,0.0,0 STARLINK-4092,1 52838U 22062J   23357.48235438  .00006197  00000-0  40734-3 0  9999,2 52838  53.2181  57.8056 0001740  94.6116 265.5075 15.08817684 84413,6917.949,95.439,541.017,538.61,0.0
52838.0,STARLINK-4092,PAYLOAD,2023-12-23 13:09:58,15.08821301,0.0001881,53.2185,57.5079,105.6009,254.519,0.00040335,6.134e-05,0.0,0 STARLINK-4092,1 52838U 22062J   23357.54859287  .00006134  00000-0  40335-3 0  9998,2 52838  53.2185  57.5079 0001881 105.6009 254.5190 15.08821301 83932,6917.938,95.439,541.104,538.501,0.0
52838.0,STARLINK-4092,PAYLOAD,2023-12-24 03:28:26,15.08840147,0.0001807,53.2196,54.8382,102.9142,257.2052,3.1904e-05,2.2e-06,0.0,0 STARLINK-4092,1 52838U 22062J   23358.14475315  .00000220  00000-0  31904-4 0  9994,2 52838  53.2196  54.8382 0001807 102.9142 257.2052 15.08840147 84518,6917.88,95.438,540.995,538.495,0.0
52838.0,STARLINK-4092,PAYLOAD,2023-12-24 11:25:22,15.08837264,0.0001732,53.2179,53.3456,86.2886,273.8304,8.6966e-05,1.096e-05,0.0,0 STARLINK-4092,1 52838U 22062J   23358.47595526  .00001096  00000-0  86966-4 0  9997,2 52838  53.2179  53.3456 0001732  86.2886 273.8304 15.08837264 84072,6917.889,95.438,540.952,538.556,0.0
52838.0,STARLINK-4092,PAYLOAD,2023-12-25 11:16:09,15.08843833,0.0001684,53.2175,48.8857,81.9775,278.1408,9.1719e-05,1.172e-05,0.0,0 STARLINK-4092,1 52838U 22062J   23359.46955223  .00001172  00000-0  91719-4 0  9998,2 52838  53.2175  48.8857 0001684  81.9775 278.1408 15.08843833 84710,6917.869,95.437,540.899,538.569,0.0
52838.0,STARLINK-4092,PAYLOAD,2023-12-26 09:31:34,15.0883325,0.0001681,53.2174,44.7231,79.7008,280.4173,3.1659e-05,2.16e-06,0.0,0 STARLINK-4092,1 52838U 22062J   23360.39692180  .00000216  00000-0  31659-4 0  9997,2 52838  53.2174  44.7231 0001681  79.7008 280.4173 15.08833250 84853,6917.901,95.438,540.929,538.603,0.0
52838.0,STARLINK-4092,PAYLOAD,2023-12-26 12:42:19,15.08845763,0.0001891,53.2176,44.1208,130.8582,229.2574,-5.3609e-06,-3.74e-06,0.0,0 STARLINK-4092,1 52838U 22062J   23360.52939073 -.00000374  00000-0 -53609-5 0  9994,2 52838  53.2176  44.1208 0001891 130.8582 229.2574 15.08845763 84388,6917.863,95.437,541.036,538.42,0.0
52838.0,STARLINK-4092,PAYLOAD,2023-12-27 03:00:48,15.08833568,0.000292,53.2198,41.4417,148.9824,211.1341,-1.5879e-05,-5.41e-06,0.0,0 STARLINK-4092,1 52838U 22062J   23361.12555798 -.00000541  00000-0 -15879-4 0  9991,2 52838  53.2198  41.4417 0002920 148.9824 211.1341 15.08833568 84963,6917.9,95.438,541.785,537.745,0.0
52838.0,STARLINK-4092,PAYLOAD,2023-12-27 09:22:20,15.0883982,0.0002006,53.2187,40.2615,114.1757,245.9445,5.1613e-05,5.33e-06,0.0,0 STARLINK-4092,1 52838U 22062J   23361.39051651  .00000533  00000-0  51613-4 0  9994,2 52838  53.2187  40.2615 0002006 114.1757 245.9445 15.08839820 84511,6917.881,95.438,541.134,538.358,0.0
52838.0,STARLINK-4092,PAYLOAD,2023-12-28 09:13:07,15.08837771,0.0002019,53.2188,35.8007,116.6901,243.4298,9.8776e-05,1.284e-05,0.0,0 STARLINK-4092,1 52838U 22062J   23362.38411699  .00001284  00000-0  98776-4 0  9991,2 52838  53.2188  35.8007 0002019 116.6901 243.4298 15.08837771 84667,6917.887,95.438,541.149,538.355,0.0
